C/2019 JU6 (ATLAS),e,148.3252,21.7543,95.0130,19498,0.0000004,0.99989502,0.0000,06/01.4296/2019,2000,g 14.5,4.0
# From MPEC 2021-P47
C/2019 K1 (ATLAS),e,87.0918,73.3607,265.7150,434066,0.0000000,0.99999536,0.0000,02/12.9561/2020,2000,g 10.0,4.0
# From MPC119997
C/2019 K4 (Ye),e,105.2965,180.1399,139.8177,1315,0.0000207,0.99827837,0.0000,06/15.9070/2019,2000,g 12.5,4.0
# From MPEC 2021-P47
C/2019 K5 (Young),e,15.3193,177.1265,175.0795,165.0791,0.0004647,0.98765196,0.0000,06/23.0771/2019,2000,g 13.0,4.0
# From MPEC 2021-P47
C/2019 K6 (PANSTARRS),e,132.3836,42.9771,187.6297,1877,0.0000121,0.99790815,0.0000,05/20.2274/2020,2000,g 11.5,4.0
# From MPEC 2022-M88
C/2019 K7 (Smith),h,06/17.4120/2020,103.5411,307.9412,27.3753,1.000568,4.477428,2000,6.0,4.0
# From MPEC 2021-R75
C/2019 K8 (ATLAS),e,93.1841,291.0429,85.3899,2705,0.0000070,0.99881943,0.0000,07/21.7450/2019,2000,g 11.5,4.0
# From MPC118095
C/2019 L1 (PANSTARRS),e,9.9855,254.4273,50.0268,9.842887,0.0319169,0.70579320,33.6653,07/01.0/2022,2000,g 13.5,4.0
# From MPC115886
C/2019 L2 (NEOWISE),e,152.2074,12.5513,18.8043,24.94236,0.0079122,0.93486878,9.3864,07/01.0/2022,2000,g 16.0,4.0
# From MPEC 2021-Y10
P/2019 LD2 (ATLAS),e,11.6215,179.5939,121.4936,5.238425,0.0822059,0.12754603,68.4337,07/01.0/2022,2000,g  8.5,4.0
# From MPEC 2022-M88
C/2019 L3 (ATLAS),h,01/09.6153/2022,48.3577,290.7889,171.6095,1.001748,3.554434,2000,4.5,4.0
# From MPC118095
C/2019 LB7 (Kleyna),e,164.2917,3.8862,336.5039,34.56680,0.0048497,0.92805136,5.7838,07/01.0/2022,2000,g 17.0,4.0
# From MPC118843
P/2019 M2 (ATLAS),e,12.2771,307.6100,332.5749,3.027983,0.1870570,0.64775190,206.6315,07/01.0/2022,2000,g 21.2,4.0
# From MPC118095
C/2019 M3 (ATLAS),e,99.4867,154.9110,87.8826,61395,0.0000001,0.99996058,0.0000,01/01.5810/2019,2000,g 12.2,4.0
# From MPEC 2022-C56
C/2019 N1 (ATLAS),e,82.4286,13.5747,193.4407,2823,0.0000066,0.99939602,0.0000,12/01.6574/2020,2000,g  7.5,4.0
# From MPEC 2022-A21
C/2019 NJ3 (Lemmon),h,10/22.7243/2020,99.4349,142.4590,246.8943,1.002004,4.362551,2000,9.0,4.0
# From MPEC 2022-M88
A/2019 O2,e,93.2987,48.2762,129.6602,57.55158,0.0022575,0.83175656,359.3663,07/01.0/2022,2000,g  9.5,2.0
# From MPEC 2022-M88
C/2019 O3 (Palomar),h,03/09.1613/2021,89.8195,300.3975,60.1085,1.003919,8.820258,2000,3.5,4.0
# From MPEC 2021-P47
A/2019 O4,e,115.0970,354.9075,61.8857,33.13947,0.0051664,0.88996831,4.5026,07/01.0/2022,2000,g 15.5,2.0
# From MPEC 2021-N06
C/2019 Q1 (Lemmon),h,07/20.3088/2020,155.7258,42.4703,56.1521,1.000160,5.000281,2000,8.5,4.0
# From MPC117072
A/2019 Q2,e,159.0311,188.0064,176.3380,57.41550,0.0022655,0.97804464,0.0000,07/22.0254/2019,2000,g 18.0,2.0
# From MPC117072
C/2019 Q3 (PANSTARRS),h,08/21.5538/2018,65.5280,151.3253,152.7653,1.003060,7.261502,2000,8.5,4.0
# From MPC117072
P/2019 S2 (PANSTARRS),e,10.4692,93.1399,217.0933,4.740505,0.0954920,0.20627078,116.9323,07/01.0/2022,2000,g 13.5,4.0
# From MPEC 2022-CN4
P/2019 S3 (PANSTARRS),e,8.6947,150.1605,213.0169,3.415336,0.1561543,0.47122941,162.2826,07/01.0/2022,2000,g 18.3,4.0
# From MPEC 2021-S45
C/2019 S4 (Lemmon),e,92.0529,63.1523,71.3695,230.6533,0.0002814,0.98507484,0.0000,04/07.9037/2020,2000,g 11.0,4.0
# From MPEC 2022-L66
A/2019 T1,e,120.8765,6.9450,91.0679,38.55154,0.0041176,0.88892568,2.1922,07/01.0/2022,2000,g 13.0,2.0
# From MPEC 2022-L66
C/2019 T2 (Lemmon),e,111.4878,155.6439,239.4179,2663,0.0000072,0.99900610,0.0000,04/22.3964/2021,2000,g  9.0,4.0
# From MPEC 2022-M88
C/2019 T3 (ATLAS),e,121.8510,139.5295,112.3967,3377,0.0000050,0.99823840,0.0000,03/03.8323/2021,2000,g  6.8,4.0
# From MPEC 2022-M88
C/2019 T4 (ATLAS),e,53.6296,199.9388,351.1984,999.4666,0.0000312,0.99575534,0.0000,06/09.1196/2022,2000,g  5.0,4.0
# From MPEC 2021-P47
P/2019 T5 (ATLAS),e,33.4614,247.6449,189.5611,7.995642,0.0435937,0.80928320,46.4113,07/01.0/2022,2000,g 15.0,4.0
# From MPEC 2021-P47
P/2019 T6 (PANSTARRS),e,18.6971,71.2536,328.9442,5.435912,0.0777670,0.62291976,75.1097,07/01.0/2022,2000,g 15.5,4.0
# From MPC118096
P/2019 U4 (PANSTARRS),e,11.6986,200.0014,180.9994,3.520365,0.1492185,0.47590961,151.6101,07/01.0/2022,2000,g 19.0,4.0
# From MPEC 2022-M88
C/2019 U5 (PANSTARRS),h,03/29.9487/2023,113.5211,2.6372,181.5173,1.001350,3.623875,2000,4.5,4.0
# From MPEC 2022-H04
C/2019 U6 (Lemmon),e,60.9922,235.7236,329.6271,364.7840,0.0001415,0.99749365,0.0000,06/18.6117/2020,2000,g 10.0,4.0
# From MPC119998
C/2019 V1 (Borisov),e,61.8790,83.1815,51.1687,1414,0.0000185,0.99781004,0.0000,07/16.3714/2020,2000,g 11.0,4.0
# From MPEC 2022-L66
P/2019 V2 (Groeller),e,11.8079,189.1837,335.8731,7.504584,0.0479418,0.33120984,29.7502,07/01.0/2022,2000,g 10.0,4.0
# From MPC119998
P/2019 W1 (PANSTARRS),e,23.4708,35.3792,18.6876,4.549454,0.1015699,0.26680064,116.7854,07/01.0/2022,2000,g 12.9,4.0
# From MPEC 2021-P47
P/2019 X1 (Pruyne),e,10.2482,43.6715,36.7822,6.173085,0.0642615,0.30326924,69.1209,07/01.0/2022,2000,g 10.4,4.0
# From MPC119999
C/2019 Y1 (ATLAS),e,73.3279,31.5420,57.9384,85.86418,0.0012388,0.99032863,0.0000,03/15.7068/2020,2000,g 13.7,4.0
# From MPEC 2020-L06
C/2019 Y4 (ATLAS),h,05/31.0357/2020,45.7681,120.9639,177.2838,1.001410,0.252159,2000,11.6,6.0
# From MPEC 2020-L06
C/2019 Y4-A (ATLAS),h,05/31.0357/2020,45.7681,120.9639,177.2838,1.001410,0.252159,2000,11.6,6.0
# From MPEC 2020-L06
C/2019 Y4-B (ATLAS),e,45.4030,120.6594,177.4167,1476,0.0000174,0.99982809,0.0000,05/31.0136/2020,2000,g 12.8,6.0
# From MPEC 2020-L06
C/2019 Y4-C (ATLAS),h,05/30.9922/2020,45.5502,120.6900,177.3172,1.002131,0.253218,2000,12.7,6.0
# From MPEC 2020-L06
C/2019 Y4-D (ATLAS),e,45.5928,121.0684,177.4549,68.37456,0.0017433,0.99630591,0.0000,05/31.1136/2020,2000,g 12.5,6.0
# From MPEC 2021-P47
C/2019 Y5 (PANSTARRS),e,82.7861,51.7684,303.5288,796.4608,0.0000438,0.99382717,0.0000,08/18.1944/2019,2000,g 11.0,4.0
# From MPEC 2022-HC2
A/2020 A1,e,149.0391,119.2513,302.5679,25.49643,0.0076557,0.93460298,7.2066,07/01.0/2022,2000,g 18.0,2.0
# From MPEC 2020-L06
C/2020 A2 (Iwamoto),e,120.6951,286.3488,68.1487,1326,0.0000204,0.99926414,0.0000,01/08.5406/2020,2000,g 13.5,4.0
# From MPEC 2020-L06
C/2020 A3 (ATLAS),h,07/29.8223/2019,146.7644,120.3868,271.1525,1.026100,5.836844,2000,8.0,4.0
# From MPEC 2020-N08
A/2020 B1,e,18.5139,310.0079,154.7119,51.35023,0.0026785,0.96604150,2.4589,07/01.0/2022,2000,g 21.0,2.0
# From MPEC 2020-L06
C/2020 B3 (Rankin),e,20.7105,185.8486,324.9727,1028,0.0000299,0.99675075,0.0000,10/19.4068/2019,2000,g 13.0,4.0
# From MPEC 2022-H04
P/2020 B4 (Sheppard),e,11.6090,185.9793,342.2169,7.966802,0.0438307,0.19167814,9.7114,07/01.0/2022,2000,g 10.5,4.0
# From MPEC 2022-M88
C/2020 F2 (ATLAS),h,07/15.7207/2022,163.5849,250.2726,48.3563,1.005148,8.817089,2000,4.5,4.0
# From MPEC 2021-O56
C/2020 F3 (NEOWISE),e,129.0239,61.0398,37.3205,343.4581,0.0001548,0.99914016,0.0000,07/03.6090/2020,2000,g  7.5,5.2
# From MPEC 2022-M88
C/2020 F5 (MASTER),e,52.2636,350.5246,310.7386,224.9438,0.0002921,0.98078187,0.0000,03/19.1015/2021,2000,g  6.5,3.2
# From MPEC 2020-L06
C/2020 F6 (PANSTARRS),e,174.5830,207.9049,344.6089,414.0488,0.0001170,0.99152441,0.0000,04/11.7765/2020,2000,g 14.5,2.8
# From MPEC 2022-L66
C/2020 F7 (Lemmon),e,93.9512,321.8829,227.9587,637.8702,0.0000612,0.99164086,0.0000,11/13.8928/2021,2000,g  7.0,4.0
# From MPEC 2020-KB7
C/2020 F8 (SWAN),e,110.7137,259.9401,68.1620,264.1790,0.0002295,0.99837392,0.0000,05/27.5534/2020,2000,g 10.0,4.0
# From MPEC 2020-L06
P/2020 G1 (Pimentel),e,18.4943,240.1065,207.6203,3.608949,0.1437583,0.86008466,120.1286,07/01.0/2022,2000,g 17.0,4.0
# From MPEC 2020-L06
C/2020 H2 (Pruyne),e,124.9841,277.6553,26.6983,192.7646,0.0003683,0.99567955,0.0000,04/27.7515/2020,2000,g 18.0,4.0
# From MPEC 2020-HM1
C/2020 H3 (Wierzchos),p,06/05.7162/2020,62.5292,30.4456,2.300288,270.6227,2000,13.5,4.0
# From MPEC 2020-L06
C/2020 H4 (Leonard),e,84.5070,307.7110,117.5623,47.95365,0.0029681,0.98069817,0.0000,08/29.5883/2020,2000,g 15.0,3.2
# From MPEC 2022-L66
C/2020 H5 (Robinson),e,70.2451,210.6278,326.3805,3493,0.0000048,0.99732500,0.0000,12/11.5059/2020,2000,g  5.0,4.0
# From MPEC 2022-M88
C/2020 H6 (ATLAS),h,09/30.9988/2021,79.9752,213.7129,20.3381,1.000307,4.702789,2000,8.0,3.2
# From MPEC 2020-KB7
C/2020 H7 (Lemmon),e,135.9235,323.5194,82.6780,1405,0.0000187,0.99685380,0.0000,06/02.9510/2020,2000,g 11.0,4.0
# From MPEC 2021-N06
C/2020 H8 (PANSTARRS),e,99.6665,68.4133,128.9486,591.5589,0.0000685,0.99209555,0.0000,06/04.4888/2020,2000,g 10.5,4.0
# From MPEC 2022-ED3
A/2020 H9,e,137.8746,213.1634,312.8666,370.5835,0.0001382,0.99304515,0.0000,12/21.3897/2019,2000,g 18.0,2.0
# From MPEC 2022-M21
C/2020 J1 (SONEAR),h,04/18.6521/2021,142.3014,226.5907,341.7637,1.000727,3.355038,2000,8.5,3.2
# From MPEC 2022-M21
C/2020 K1 (PANSTARRS),e,89.6632,94.3561,213.9787,40904,0.0000001,0.99992486,0.0000,05/09.0674/2023,2000,g  5.5,4.0
# From MPEC 2021-N06
C/2020 K2 (PANSTARRS),h,08/06.1580/2020,91.0362,288.3681,67.3402,1.003733,8.879413,2000,10.8,4.0
# From MPEC 2020-KF9
C/2020 K3 (Leonard),p,06/01.0032/2020,129.0152,64.4924,1.583069,28.3546,2000,14.5,4.0
# From MPEC 2020-L06
C/2020 K4 (PANSTARRS),e,125.5762,264.1411,308.8341,23.92913,0.0084200,0.92668164,7.1507,07/01.0/2022,2000,g 16.5,4.0
# From MPEC 2021-R75
C/2020 K5 (PANSTARRS),h,06/05.5665/2021,67.1414,86.1667,249.5986,1.001484,1.535971,2000,11.0,4.0
# From MPEC 2022-M88
C/2020 K6 (Rankin),h,09/15.7303/2021,103.6478,291.5341,44.3234,1.003450,5.868641,2000,8.0,4.0
# From MPEC 2022-L66
C/2020 K7 (PANSTARRS),e,32.0396,286.0680,358.2602,100.5257,0.0009779,0.93642231,0.9547,07/01.0/2022,2000,g  8.0,4.0
# From MPEC 2021-P47
C/2020 K8 (Catalina-ATLAS),h,09/14.6107/2020,31.4296,181.5461,259.9830,1.000150,0.473260,2000,15.0,3.2
# From MPEC 2021-BE3
P/2020 K9 (Lemmon-PANSTARRS),e,23.2099,166.2389,196.9677,4.200604,0.1144818,0.32141698,57.6808,07/01.0/2022,2000,g 12.5,4.0
# From MPEC 2021-U31
P/2020 M1 (PANSTARRS),e,8.5688,142.7278,72.4126,5.313220,0.0804762,0.47650565,73.6210,07/01.0/2022,2000,g 14.5,4.0
# From MPEC 2022-H30
